0 ARIANE 44LP DEB
1 25928U 91015J   13280.97427262  .00001203  00000-0  72520-2 0  9438
2 25928 007.0762 135.2717 6684028 079.3722 010.7467 02.88639837164628
0 ARIANE 44LP DEB
1 25928U 91015J   13282.93358204  .00001223  00000-0  73480-2 0  9444
2 25928 007.0775 134.2096 6684427 081.4254 246.6674 02.88649523164687
0 ARIANE 44LP DEB
1 25928U 91015J   13286.40668003  .00001345  00000-0  84367-2 0  9453
2 25928 007.0801 132.3235 6685052 085.0693 255.7191 02.88660098164789
0 ARIANE 44LP DEB
1 25928U 91015J   13287.53347634  .00001522  00000-0  95377-2 0  9463
2 25928 007.0810 131.7091 6685230 086.2541 346.6544 02.88665075164811
0 ARIANE 44LP DEB
1 25928U 91015J   13290.64565568  .00002080  00000-0  11133-1 0  9486
2 25928 007.0818 130.0910 6687694 089.4472 340.8494 02.88676042164901
0 ARIANE 44LP DEB
1 25928U 91015J   13290.69678426  .00001822  00000-0  11122-1 0  9479
2 25928 007.0837 129.9967 6685620 089.5670 033.9761 02.88680415164905
0 ARIANE 44LP DEB
1 25928U 91015J   13292.42058560  .00001588  00000-0  96316-2 0  9482
2 25928 007.0853 129.0778 6685570 091.3557 025.4187 02.88685970164957
0 ARIANE 44LP DEB
1 25928U 91015J   13293.82471486  .00002176  00000-0  12667-1 0  9494
2 25928 007.0866 128.3005 6685733 092.8478 044.7041 02.88696550164998
